0 OSCAR 8
1 10703U 78026B   13281.87258322 -.00000072  00000-0 -20880-4 0  9506
2 10703 098.7267 276.9695 0007530 109.8694 312.2212 13.99026074816186
0 OSCAR 8
1 10703U 78026B   13283.01893883 -.00000101  00000-0 -41485-4 0  9519
2 10703 098.7265 278.0616 0007485 107.3918 325.1220 13.99026457816346
0 OSCAR 8
1 10703U 78026B   13284.08554818 -.00000123  00000-0 -56359-4 0  9520
2 10703 098.7263 279.0777 0007447 105.0709 296.4479 13.99026619816496
0 OSCAR 8
1 10703U 78026B   13286.52999704 -.00000179  00000-0 -95007-4 0  9544
2 10703 098.7260 281.4063 0007372 099.7357 006.4382 13.99026798816831
0 OSCAR 8
1 10703U 78026B   13287.81536859 -.00000182  00000-0 -97327-4 0  9557
2 10703 098.7260 282.6306 0007312 096.9269 359.4402 13.99026725817014
0 OSCAR 8
1 10703U 78026B   13288.82145898 -.00000192  00000-0 -10414-3 0  9561
2 10703 098.7260 283.5889 0007281 094.7635 025.9749 13.99026560817159
0 OSCAR 8
1 10703U 78026B   13289.95801265 -.00000195  00000-0 -10616-3 0  9571
2 10703 098.7260 284.6713 0007249 092.2628 349.5612 13.99026425817318
0 OSCAR 8
1 10703U 78026B   13291.17054387 -.00000197  00000-0 -10775-3 0  9582
2 10703 098.7262 285.8261 0007204 089.6627 335.6959 13.99026070817485
0 OSCAR 8
1 10703U 78026B   13292.17137884 -.00000188  00000-0 -10168-3 0  9594
2 10703 098.7263 286.7793 0007172 087.5041 335.7700 13.99025690817625
0 OSCAR 8
1 10703U 78026B   13293.47849123 -.00000188  00000-0 -10135-3 0  9600
2 10703 098.7263 288.0242 0007138 084.6348 078.2645 13.99025226817801
0 OSCAR 8
1 10703U 78026B   13294.54069657 -.00000184  00000-0 -98902-4 0  9611
2 10703 098.7263 289.0360 0007128 082.1953 027.5371 13.99024850817958
0 OSCAR 8
1 10703U 78026B   13295.81726139 -.00000166  00000-0 -86104-4 0  9629
2 10703 098.7261 290.2521 0007115 079.2633 336.3244 13.99024295818131
